{"type":"Feature","properties":{},"geometry":{"type":"LineString","coordinates":[[83.969162,28.195898],[83.969453,28.196857],[83.969541,28.196985],[83.969649,28.197068],[83.969798,28.197088],[83.969564,28.197766],[83.969463,28.198091],[83.969445,28.198169],[83.96944,28.198234],[83.969438,28.19826],[83.969441,28.198314],[83.969458,28.198382],[83.969645,28.198893],[83.969832,28.199282],[83.969981,28.199461],[83.970394,28.199893],[83.971182,28.200828],[83.970831,28.201005],[83.970692,28.201075],[83.970476,28.201137],[83.970162,28.201294],[83.969963,28.201401],[83.969829,28.201494],[83.969795,28.201509],[83.969734,28.201527],[83.969651,28.201551],[83.969587,28.201555],[83.969512,28.201555],[83.96942,28.201538],[83.969192,28.201439],[83.969115,28.201421],[83.968799,28.201377],[83.968582,28.201369],[83.967972,28.201363],[83.967882,28.201361],[83.967804,28.201378],[83.96777,28.201392],[83.967728,28.201415],[83.967464,28.201695],[83.967327,28.201874],[83.967033,28.202212],[83.966925,28.202362],[83.966847,28.202484],[83.96678,28.202594],[83.966692,28.202828],[83.966655,28.202899],[83.966622,28.202961],[83.966568,28.203028],[83.966506,28.203093],[83.96634,28.20325],[83.966052,28.203487],[83.965719,28.203788],[83.965599,28.203889],[83.965488,28.203967],[83.965377,28.204038],[83.96528,28.20409],[83.965155,28.204136],[83.965044,28.204167],[83.96493,28.2042],[83.96451,28.204294],[83.964447,28.204302],[83.964286,28.204322],[83.964137,28.204336],[83.964036,28.204341],[83.963906,28.20433],[83.963768,28.204305],[83.96356,28.204245],[83.963392,28.204178],[83.963295,28.204149],[83.963224,28.204138],[83.963178,28.204138],[83.963136,28.20414],[83.963043,28.204157],[83.962723,28.204273],[83.962559,28.204332],[83.962425,28.204385],[83.962348,28.204429],[83.962298,28.204468],[83.962258,28.204504],[83.962196,28.204575],[83.962061,28.204761],[83.962053,28.204772],[83.961952,28.204912],[83.961765,28.205183],[83.961589,28.205389],[83.961307,28.205699],[83.961246,28.205755],[83.961131,28.205855],[83.961072,28.205893],[83.961019,28.205904],[83.960895,28.205914],[83.960834,28.205918],[83.960411,28.205958],[83.960237,28.205999],[83.960154,28.206019],[83.960103,28.206045],[83.960067,28.206085],[83.959954,28.206193],[83.959815,28.206319],[83.959753,28.206357],[83.95967,28.206395],[83.959385,28.206468],[83.959127,28.206537],[83.958609,28.206667],[83.957967,28.206864],[83.95782,28.206924],[83.957758,28.206963],[83.957719,28.207025],[83.957642,28.207174],[83.957402,28.207624],[83.957445,28.208289],[83.957387,28.208478],[83.957166,28.209248],[83.957048,28.209685],[83.957026,28.2098],[83.95701,28.209912],[83.957008,28.209958],[83.95701,28.210005],[83.957031,28.210136],[83.957038,28.210173],[83.957051,28.21028],[83.957086,28.210483],[83.957062,28.21058],[83.957063,28.210661],[83.957077,28.210765],[83.957112,28.21086],[83.95717,28.210963],[83.957179,28.211041],[83.957195,28.211258],[83.957198,28.211475],[83.957196,28.211531],[83.957191,28.211707],[83.957109,28.211827],[83.957104,28.211923],[83.957115,28.212027],[83.957167,28.212168],[83.957166,28.212239],[83.957165,28.212263],[83.957159,28.212543],[83.95716,28.212643],[83.957173,28.212735],[83.957195,28.212841],[83.957221,28.212933],[83.957242,28.213007],[83.957291,28.213154],[83.957343,28.213274],[83.957379,28.21334],[83.957422,28.213418],[83.957749,28.214017],[83.958109,28.21472],[83.958348,28.215235],[83.958434,28.215459],[83.958541,28.215695],[83.958607,28.215959],[83.958666,28.21649],[83.958684,28.216664],[83.958697,28.216779],[83.958712,28.216844],[83.958779,28.217019],[83.958844,28.217175],[83.95889,28.217286],[83.958913,28.217389],[83.958928,28.217457],[83.958969,28.217645],[83.958891,28.217988],[83.958886,28.218018],[83.958836,28.21819],[83.958746,28.21855],[83.958714,28.218633],[83.958684,28.218691],[83.958649,28.218736],[83.958535,28.218848],[83.958459,28.218915],[83.958417,28.218972],[83.958392,28.219009],[83.95832,28.219181],[83.958275,28.219389],[83.958254,28.219518],[83.958232,28.219583],[83.958197,28.219645],[83.958166,28.219685],[83.957941,28.219868],[83.957785,28.220004],[83.957734,28.220066],[83.957714,28.220087],[83.957757,28.220176],[83.957782,28.220252],[83.957806,28.220338],[83.957826,28.220399],[83.957863,28.220489],[83.957939,28.220556],[83.958072,28.220634],[83.958124,28.220702],[83.958143,28.220738],[83.958163,28.22077]]}}